CCSDS_OMM_VERS = 2.0
CREATION_DATE  = 
ORIGINATOR     = 

OBJECT_NAME    = MR-2
OBJECT_ID      = 2026-015A
CENTER_NAME    = EARTH
REF_FRAME      = TEME
TIME_SYSTEM    = UTC
MEAN_ELEMENT_THEORY = SGP/SGP4

EPOCH          = 2026-02-18T18:37:36.670368
MEAN_MOTION    = 13.52686638
ECCENTRICITY   = .0005028
INCLINATION    = 88.9963
RA_OF_ASC_NODE = 280.5860
ARG_OF_PERICENTER = 72.3290
MEAN_ANOMALY   = 287.8411

EPHEMERIS_TYPE = 0
CLASSIFICATION_TYPE = U
NORAD_CAT_ID   = 67556
ELEMENT_SET_NO = 999
REV_AT_EPOCH   = 370
BSTAR          = .80383E-4
MEAN_MOTION_DOT = .65E-6
MEAN_MOTION_DDOT = 0

CCSDS_OMM_VERS = 2.0
CREATION_DATE  = 
ORIGINATOR     = 

OBJECT_NAME    = MR-1
OBJECT_ID      = 2026-015B
CENTER_NAME    = EARTH
REF_FRAME      = TEME
TIME_SYSTEM    = UTC
MEAN_ELEMENT_THEORY = SGP/SGP4

EPOCH          = 2026-02-18T15:05:17.331648
MEAN_MOTION    = 13.52661772
ECCENTRICITY   = .0005105
INCLINATION    = 88.9963
RA_OF_ASC_NODE = 280.6012
ARG_OF_PERICENTER = 71.3970
MEAN_ANOMALY   = 288.7736

EPHEMERIS_TYPE = 0
CLASSIFICATION_TYPE = U
NORAD_CAT_ID   = 67557
ELEMENT_SET_NO = 999
REV_AT_EPOCH   = 368
BSTAR          = .89081E-4
MEAN_MOTION_DOT = .71E-6
MEAN_MOTION_DDOT = 0

CCSDS_OMM_VERS = 2.0
CREATION_DATE  = 
ORIGINATOR     = 

OBJECT_NAME    = ELECTRON KICK STAGE R/B
OBJECT_ID      = 2026-015D
CENTER_NAME    = EARTH
REF_FRAME      = TEME
TIME_SYSTEM    = UTC
MEAN_ELEMENT_THEORY = SGP/SGP4

EPOCH          = 2026-02-18T21:43:20.030016
MEAN_MOTION    = 14.68603467
ECCENTRICITY   = .0527123
INCLINATION    = 89.0490
RA_OF_ASC_NODE = 280.1321
ARG_OF_PERICENTER = 238.9141
MEAN_ANOMALY   = 115.9342

EPHEMERIS_TYPE = 0
CLASSIFICATION_TYPE = U
NORAD_CAT_ID   = 67559
ELEMENT_SET_NO = 999
REV_AT_EPOCH   = 403
BSTAR          = .743E-3
MEAN_MOTION_DOT = .44386E-3
MEAN_MOTION_DDOT = -.17215E-6

CCSDS_OMM_VERS = 2.0
CREATION_DATE  = 
ORIGINATOR     = 

OBJECT_NAME    = STARLINK-36426
OBJECT_ID      = 2026-014AA
CENTER_NAME    = EARTH
REF_FRAME      = TEME
TIME_SYSTEM    = UTC
MEAN_ELEMENT_THEORY = SGP/SGP4

EPOCH          = 2026-02-18T19:16:29.139456
MEAN_MOTION    = 15.75260620
ECCENTRICITY   = .0001327
INCLINATION    = 97.2838
RA_OF_ASC_NODE = 293.8550
ARG_OF_PERICENTER = 114.9581
MEAN_ANOMALY   = 245.1822

EPHEMERIS_TYPE = 0
CLASSIFICATION_TYPE = U
NORAD_CAT_ID   = 67560
ELEMENT_SET_NO = 999
REV_AT_EPOCH   = 559
BSTAR          = .15274E-2
MEAN_MOTION_DOT = .23478E-2
MEAN_MOTION_DDOT = 0

CCSDS_OMM_VERS = 2.0
CREATION_DATE  = 
ORIGINATOR     = 

OBJECT_NAME    = STARLINK-36621
OBJECT_ID      = 2026-016A
CENTER_NAME    = EARTH
REF_FRAME      = TEME
TIME_SYSTEM    = UTC
MEAN_ELEMENT_THEORY = SGP/SGP4

EPOCH          = 2026-02-18T16:02:30.757056
MEAN_MOTION    = 15.75250429
ECCENTRICITY   = .0001483
INCLINATION    = 97.2830
RA_OF_ASC_NODE = 109.1340
ARG_OF_PERICENTER = 51.9030
MEAN_ANOMALY   = 308.2369

EPHEMERIS_TYPE = 0
CLASSIFICATION_TYPE = U
NORAD_CAT_ID   = 67561
ELEMENT_SET_NO = 999
REV_AT_EPOCH   = 380
BSTAR          = .17301E-2
MEAN_MOTION_DOT = .266852E-2
MEAN_MOTION_DDOT = 0

CCSDS_OMM_VERS = 2.0
CREATION_DATE  = 
ORIGINATOR     = 

OBJECT_NAME    = STARLINK-36398
OBJECT_ID      = 2026-016B
CENTER_NAME    = EARTH
REF_FRAME      = TEME
TIME_SYSTEM    = UTC
MEAN_ELEMENT_THEORY = SGP/SGP4

EPOCH          = 2026-02-18T16:13:10.854912
MEAN_MOTION    = 15.75233367
ECCENTRICITY   = .0001503
INCLINATION    = 97.2830
RA_OF_ASC_NODE = 109.1220
ARG_OF_PERICENTER = 114.5514
MEAN_ANOMALY   = 245.5908

EPHEMERIS_TYPE = 0
CLASSIFICATION_TYPE = U
NORAD_CAT_ID   = 67562
ELEMENT_SET_NO = 999
REV_AT_EPOCH   = 380
BSTAR          = .13665E-2
MEAN_MOTION_DOT = .209148E-2
MEAN_MOTION_DDOT = 0

CCSDS_OMM_VERS = 2.0
CREATION_DATE  = 
ORIGINATOR     = 

OBJECT_NAME    = STARLINK-36403
OBJECT_ID      = 2026-016C
CENTER_NAME    = EARTH
REF_FRAME      = TEME
TIME_SYSTEM    = UTC
MEAN_ELEMENT_THEORY = SGP/SGP4

EPOCH          = 2026-02-18T15:17:36.621024
MEAN_MOTION    = 15.80967003
ECCENTRICITY   = .0001708
INCLINATION    = 97.2832
RA_OF_ASC_NODE = 109.1778
ARG_OF_PERICENTER = 60.9696
MEAN_ANOMALY   = 299.1743

EPHEMERIS_TYPE = 0
CLASSIFICATION_TYPE = U
NORAD_CAT_ID   = 67563
ELEMENT_SET_NO = 999
REV_AT_EPOCH   = 380
BSTAR          = .17741E-2
MEAN_MOTION_DOT = .356382E-2
MEAN_MOTION_DDOT = 0

CCSDS_OMM_VERS = 2.0
CREATION_DATE  = 
ORIGINATOR     = 

OBJECT_NAME    = STARLINK-36593
OBJECT_ID      = 2026-016D
CENTER_NAME    = EARTH
REF_FRAME      = TEME
TIME_SYSTEM    = UTC
MEAN_ELEMENT_THEORY = SGP/SGP4

EPOCH          = 2026-02-18T21:20:56.807232
MEAN_MOTION    = 15.79105412
ECCENTRICITY   = .0000481
INCLINATION    = 97.2831
RA_OF_ASC_NODE = 109.4467
ARG_OF_PERICENTER = 54.4887
MEAN_ANOMALY   = 305.6425

EPHEMERIS_TYPE = 0
CLASSIFICATION_TYPE = U
NORAD_CAT_ID   = 67564
ELEMENT_SET_NO = 999
REV_AT_EPOCH   = 384
BSTAR          = -.51773E-2
MEAN_MOTION_DOT = -.834081E-2
MEAN_MOTION_DDOT = 0

CCSDS_OMM_VERS = 2.0
CREATION_DATE  = 
ORIGINATOR     = 

OBJECT_NAME    = STARLINK-35725
OBJECT_ID      = 2026-016E
CENTER_NAME    = EARTH
REF_FRAME      = TEME
TIME_SYSTEM    = UTC
MEAN_ELEMENT_THEORY = SGP/SGP4

EPOCH          = 2026-02-18T17:16:12.528480
MEAN_MOTION    = 15.75207172
ECCENTRICITY   = .0001772
INCLINATION    = 97.2834
RA_OF_ASC_NODE = 109.2174
ARG_OF_PERICENTER = 59.5873
MEAN_ANOMALY   = 300.5567

EPHEMERIS_TYPE = 0
CLASSIFICATION_TYPE = U
NORAD_CAT_ID   = 67565
ELEMENT_SET_NO = 999
REV_AT_EPOCH   = 381
BSTAR          = .13973E-2
MEAN_MOTION_DOT = .213743E-2
MEAN_MOTION_DDOT = 0

CCSDS_OMM_VERS = 2.0
CREATION_DATE  = 
ORIGINATOR     = 

OBJECT_NAME    = STARLINK-36394
OBJECT_ID      = 2026-016F
CENTER_NAME    = EARTH
REF_FRAME      = TEME
TIME_SYSTEM    = UTC
MEAN_ELEMENT_THEORY = SGP/SGP4

EPOCH          = 2026-02-18T17:18:44.321184
MEAN_MOTION    = 15.75244995
ECCENTRICITY   = .0000807
INCLINATION    = 97.2842
RA_OF_ASC_NODE = 109.2117
ARG_OF_PERICENTER = 80.9308
MEAN_ANOMALY   = 279.2049

EPHEMERIS_TYPE = 0
CLASSIFICATION_TYPE = U
NORAD_CAT_ID   = 67566
ELEMENT_SET_NO = 999
REV_AT_EPOCH   = 381
BSTAR          = .12981E-2
MEAN_MOTION_DOT = .198537E-2
MEAN_MOTION_DDOT = 0

CCSDS_OMM_VERS = 2.0
CREATION_DATE  = 
ORIGINATOR     = 

OBJECT_NAME    = STARLINK-36352
OBJECT_ID      = 2026-016G
CENTER_NAME    = EARTH
REF_FRAME      = TEME
TIME_SYSTEM    = UTC
MEAN_ELEMENT_THEORY = SGP/SGP4

EPOCH          = 2026-02-18T18:12:52.638912
MEAN_MOTION    = 15.80878432
ECCENTRICITY   = .0002174
INCLINATION    = 97.2835
RA_OF_ASC_NODE = 109.3144
ARG_OF_PERICENTER = 61.5752
MEAN_ANOMALY   = 298.5735

EPHEMERIS_TYPE = 0
CLASSIFICATION_TYPE = U
NORAD_CAT_ID   = 67567
ELEMENT_SET_NO = 999
REV_AT_EPOCH   = 382
BSTAR          = .15033E-2
MEAN_MOTION_DOT = .298756E-2
MEAN_MOTION_DDOT = 0

