MR-2                    
1 67556U 26015A   26049.77611887  .00000065  00000+0  80383-4 0  9995
2 67556  88.9963 280.5860 0005028  72.3290 287.8411 13.52686638  3700
MR-1                    
1 67557U 26015B   26049.62867282  .00000071  00000+0  89081-4 0  9993
2 67557  88.9963 280.6012 0005105  71.3970 288.7736 13.52661772  3680
ELECTRON KICK STAGE R/B 
1 67559U 26015D   26049.90509294  .00044386 -17215-6  74300-3 0  9990
2 67559  89.0490 280.1321 0527123 238.9141 115.9342 14.68603467  4036
STARLINK-36426          
1 67560U 26014AA  26049.80311504  .00234780  00000+0  15274-2 0  9994
2 67560  97.2838 293.8550 0001327 114.9581 245.1822 15.75260620  5594
STARLINK-36621          
1 67561U 26016A   26049.66841154  .00266852  00000+0  17301-2 0  9998
2 67561  97.2830 109.1340 0001483  51.9030 308.2369 15.75250429  3800
STARLINK-36398          
1 67562U 26016B   26049.67582008  .00209148  00000+0  13665-2 0  9994
2 67562  97.2830 109.1220 0001503 114.5514 245.5908 15.75233367  3808
STARLINK-36403          
1 67563U 26016C   26049.63722941  .00356382  00000+0  17741-2 0  9995
2 67563  97.2832 109.1778 0001708  60.9696 299.1743 15.80967003  3800
STARLINK-36593          
1 67564U 26016D   26049.88954638 -.00834081  00000+0 -51773-2 0  9995
2 67564  97.2831 109.4467 0000481  54.4887 305.6425 15.79105412  3845
STARLINK-35725          
1 67565U 26016E   26049.71958945  .00213743  00000+0  13973-2 0  9997
2 67565  97.2834 109.2174 0001772  59.5873 300.5567 15.75207172  3817
STARLINK-36394          
1 67566U 26016F   26049.72134631  .00198537  00000+0  12981-2 0  9998
2 67566  97.2842 109.2117 0000807  80.9308 279.2049 15.75244995  3814
STARLINK-36352          
1 67567U 26016G   26049.75894258  .00298756  00000+0  15033-2 0  9995
2 67567  97.2835 109.3144 0002174  61.5752 298.5735 15.80878432  3827
